GLOBALSTAR M094         
1 39074U 13005C   24308.81898750 -.00000085  00000+0  10294-3 0  9997
2 39074  51.9932 148.2965 0001169  98.4588 261.6411 12.62264910543936
GLOBALSTAR M096         
1 39075U 13005D   24308.43622701 -.00000035  00000+0  38565-3 0  9993
2 39075  52.0063 197.8003 0001155  83.7999 276.2999 12.62264057542782
GLOBALSTAR M078         
1 39076U 13005E   24308.40939313 -.00000083  00000+0  11412-3 0  9996
2 39076  51.9873 282.6959 0001412  50.5165 309.5826 12.62265440541400
GLOBALSTAR M095         
1 39077U 13005F   24308.27791172 -.00000081  00000+0  12655-3 0  9999
2 39077  51.9797 280.4086 0001114  67.7782 292.3203 12.62267270541240
GLOBALSTAR M087         
1 52888U 22064A   24308.54072950 -.00000073  00000+0  10517-3 0  9991
2 52888  51.9754  82.4520 0009151   3.1548 356.9408 13.37592218116174
